ONEWEB-0228             
1 48780U 21045P   23229.08550632  .00000063  00000+0  13310-3 0  9995
2 48780  87.8982 105.3103 0001699  85.5697 274.5628 13.15546565109363
